CCSDS_OMM_VERS = 2.0
CREATION_DATE  = 
ORIGINATOR     = 

OBJECT_NAME    = ERS-1
OBJECT_ID      = 1991-050A
CENTER_NAME    = EARTH
REF_FRAME      = TEME
TIME_SYSTEM    = UTC
MEAN_ELEMENT_THEORY = SGP/SGP4

EPOCH          = 2026-04-04T01:38:54.608640
MEAN_MOTION    = 14.39470557
ECCENTRICITY   = .00329194
INCLINATION    = 98.7859
RA_OF_ASC_NODE = 112.9393
ARG_OF_PERICENTER = 125.9575
MEAN_ANOMALY   = 234.4673

EPHEMERIS_TYPE = 0
CLASSIFICATION_TYPE = U
NORAD_CAT_ID   = 21574
ELEMENT_SET_NO = 999
REV_AT_EPOCH   = 81938
BSTAR          = .19020191E-3
MEAN_MOTION_DOT = .55E-5
MEAN_MOTION_DDOT = 0

CCSDS_OMM_VERS = 2.0
CREATION_DATE  = 
ORIGINATOR     = 

OBJECT_NAME    = ARIANE 40 R/B
OBJECT_ID      = 1991-050F
CENTER_NAME    = EARTH
REF_FRAME      = TEME
TIME_SYSTEM    = UTC
MEAN_ELEMENT_THEORY = SGP/SGP4

EPOCH          = 2026-04-04T03:05:12.238368
MEAN_MOTION    = 14.42913846
ECCENTRICITY   = .00031703
INCLINATION    = 98.1959
RA_OF_ASC_NODE = 145.4038
ARG_OF_PERICENTER = 21.9524
MEAN_ANOMALY   = 338.1802

EPHEMERIS_TYPE = 0
CLASSIFICATION_TYPE = U
NORAD_CAT_ID   = 21610
ELEMENT_SET_NO = 999
REV_AT_EPOCH   = 82266
BSTAR          = .16995923E-3
MEAN_MOTION_DOT = .526E-5
MEAN_MOTION_DDOT = 0

CCSDS_OMM_VERS = 2.0
CREATION_DATE  = 
ORIGINATOR     = 

OBJECT_NAME    = INTERCOSMOS 25
OBJECT_ID      = 1991-086A
CENTER_NAME    = EARTH
REF_FRAME      = TEME
TIME_SYSTEM    = UTC
MEAN_ELEMENT_THEORY = SGP/SGP4

EPOCH          = 2026-04-04T01:57:26.235360
MEAN_MOTION    = 12.12092405
ECCENTRICITY   = .14863171
INCLINATION    = 82.5999
RA_OF_ASC_NODE = 294.6558
ARG_OF_PERICENTER = 62.2249
MEAN_ANOMALY   = 312.1518

EPHEMERIS_TYPE = 0
CLASSIFICATION_TYPE = U
NORAD_CAT_ID   = 21819
ELEMENT_SET_NO = 999
REV_AT_EPOCH   = 49976
BSTAR          = .52880374E-3
MEAN_MOTION_DOT = .2725E-4
MEAN_MOTION_DDOT = 0

CCSDS_OMM_VERS = 2.0
CREATION_DATE  = 
ORIGINATOR     = 

OBJECT_NAME    = SL-8 R/B
OBJECT_ID      = 1992-008B
CENTER_NAME    = EARTH
REF_FRAME      = TEME
TIME_SYSTEM    = UTC
MEAN_ELEMENT_THEORY = SGP/SGP4

EPOCH          = 2026-04-04T04:41:18.984768
MEAN_MOTION    = 13.75969837
ECCENTRICITY   = .00357971
INCLINATION    = 82.9242
RA_OF_ASC_NODE = 248.8002
ARG_OF_PERICENTER = 64.5745
MEAN_ANOMALY   = 108.4023

EPHEMERIS_TYPE = 0
CLASSIFICATION_TYPE = U
NORAD_CAT_ID   = 21876
ELEMENT_SET_NO = 999
REV_AT_EPOCH   = 71292
BSTAR          = .3321235E-5
MEAN_MOTION_DOT = .19E-6
MEAN_MOTION_DDOT = 0

CCSDS_OMM_VERS = 2.0
CREATION_DATE  = 
ORIGINATOR     = 

OBJECT_NAME    = SL-8 R/B
OBJECT_ID      = 1992-020B
CENTER_NAME    = EARTH
REF_FRAME      = TEME
TIME_SYSTEM    = UTC
MEAN_ELEMENT_THEORY = SGP/SGP4

EPOCH          = 2026-04-04T05:24:34.179840
MEAN_MOTION    = 13.75550683
ECCENTRICITY   = .00280398
INCLINATION    = 82.9292
RA_OF_ASC_NODE = 134.8003
ARG_OF_PERICENTER = 224.3113
MEAN_ANOMALY   = 205.3115

EPHEMERIS_TYPE = 0
CLASSIFICATION_TYPE = U
NORAD_CAT_ID   = 21938
ELEMENT_SET_NO = 999
REV_AT_EPOCH   = 70464
BSTAR          = .7694677E-5
MEAN_MOTION_DOT = .22E-6
MEAN_MOTION_DDOT = 0

CCSDS_OMM_VERS = 2.0
CREATION_DATE  = 
ORIGINATOR     = 

OBJECT_NAME    = USA 81
OBJECT_ID      = 1992-023A
CENTER_NAME    = EARTH
REF_FRAME      = TEME
TIME_SYSTEM    = UTC
MEAN_ELEMENT_THEORY = SGP/SGP4

EPOCH          = 2026-04-04T03:45:47.477664
MEAN_MOTION    = 14.32376841
ECCENTRICITY   = .00015242
INCLINATION    = 85.0039
RA_OF_ASC_NODE = 116.7425
ARG_OF_PERICENTER = 70.1120
MEAN_ANOMALY   = 290.0236

EPHEMERIS_TYPE = 0
CLASSIFICATION_TYPE = U
NORAD_CAT_ID   = 21949
ELEMENT_SET_NO = 999
REV_AT_EPOCH   = 9843
BSTAR          = .84394166E-4
MEAN_MOTION_DOT = .248E-5
MEAN_MOTION_DDOT = 0

CCSDS_OMM_VERS = 2.0
CREATION_DATE  = 
ORIGINATOR     = 

OBJECT_NAME    = COSMOS 2219
OBJECT_ID      = 1992-076A
CENTER_NAME    = EARTH
REF_FRAME      = TEME
TIME_SYSTEM    = UTC
MEAN_ELEMENT_THEORY = SGP/SGP4

EPOCH          = 2026-04-04T01:22:42.839328
MEAN_MOTION    = 14.14088953
ECCENTRICITY   = .00176734
INCLINATION    = 71.0607
RA_OF_ASC_NODE = 325.0424
ARG_OF_PERICENTER = 168.6406
MEAN_ANOMALY   = 191.5119

EPHEMERIS_TYPE = 0
CLASSIFICATION_TYPE = U
NORAD_CAT_ID   = 22219
ELEMENT_SET_NO = 999
REV_AT_EPOCH   = 72196
BSTAR          = -.55013952E-4
MEAN_MOTION_DOT = -.152E-5
MEAN_MOTION_DDOT = 0

CCSDS_OMM_VERS = 2.0
CREATION_DATE  = 
ORIGINATOR     = 

OBJECT_NAME    = SL-16 R/B
OBJECT_ID      = 1992-076B
CENTER_NAME    = EARTH
REF_FRAME      = TEME
TIME_SYSTEM    = UTC
MEAN_ELEMENT_THEORY = SGP/SGP4

EPOCH          = 2026-04-04T06:08:37.772736
MEAN_MOTION    = 14.16862686
ECCENTRICITY   = .0010919
INCLINATION    = 70.9984
RA_OF_ASC_NODE = 134.5222
ARG_OF_PERICENTER = 49.3707
MEAN_ANOMALY   = 23.7843

EPHEMERIS_TYPE = 0
CLASSIFICATION_TYPE = U
NORAD_CAT_ID   = 22220
ELEMENT_SET_NO = 999
REV_AT_EPOCH   = 72545
BSTAR          = -.36653468E-4
MEAN_MOTION_DOT = -.121E-5
MEAN_MOTION_DDOT = 0

CCSDS_OMM_VERS = 2.0
CREATION_DATE  = 
ORIGINATOR     = 

OBJECT_NAME    = COSMOS 2221
OBJECT_ID      = 1992-080A
CENTER_NAME    = EARTH
REF_FRAME      = TEME
TIME_SYSTEM    = UTC
MEAN_ELEMENT_THEORY = SGP/SGP4

EPOCH          = 2026-04-04T04:24:39.021408
MEAN_MOTION    = 14.96320068
ECCENTRICITY   = .00157
INCLINATION    = 82.5013
RA_OF_ASC_NODE = 254.6522
ARG_OF_PERICENTER = 105.8399
MEAN_ANOMALY   = 254.4555

EPHEMERIS_TYPE = 0
CLASSIFICATION_TYPE = U
NORAD_CAT_ID   = 22236
ELEMENT_SET_NO = 999
REV_AT_EPOCH   = 78460
BSTAR          = .35869142E-3
MEAN_MOTION_DOT = .409E-4
MEAN_MOTION_DDOT = 0

CCSDS_OMM_VERS = 2.0
CREATION_DATE  = 
ORIGINATOR     = 

OBJECT_NAME    = SL-16 R/B
OBJECT_ID      = 1992-093B
CENTER_NAME    = EARTH
REF_FRAME      = TEME
TIME_SYSTEM    = UTC
MEAN_ELEMENT_THEORY = SGP/SGP4

EPOCH          = 2026-04-04T00:56:40.862112
MEAN_MOTION    = 14.15456262
ECCENTRICITY   = .00066463
INCLINATION    = 71.0220
RA_OF_ASC_NODE = 311.0524
ARG_OF_PERICENTER = 269.4467
MEAN_ANOMALY   = 90.5894

EPHEMERIS_TYPE = 0
CLASSIFICATION_TYPE = U
NORAD_CAT_ID   = 22285
ELEMENT_SET_NO = 999
REV_AT_EPOCH   = 71674
BSTAR          = .3046493E-5
MEAN_MOTION_DOT = -.42E-6
MEAN_MOTION_DDOT = 0

CCSDS_OMM_VERS = 2.0
CREATION_DATE  = 
ORIGINATOR     = 

OBJECT_NAME    = COSMOS 2228
OBJECT_ID      = 1992-094A
CENTER_NAME    = EARTH
REF_FRAME      = TEME
TIME_SYSTEM    = UTC
MEAN_ELEMENT_THEORY = SGP/SGP4

EPOCH          = 2026-04-04T05:59:50.734464
MEAN_MOTION    = 14.97336380
ECCENTRICITY   = .00172221
INCLINATION    = 82.5200
RA_OF_ASC_NODE = 212.8379
ARG_OF_PERICENTER = 211.8550
MEAN_ANOMALY   = 148.1632

EPHEMERIS_TYPE = 0
CLASSIFICATION_TYPE = U
NORAD_CAT_ID   = 22286
ELEMENT_SET_NO = 999
REV_AT_EPOCH   = 77988
BSTAR          = .39795884E-3
MEAN_MOTION_DOT = .4657E-4
MEAN_MOTION_DDOT = 0

CCSDS_OMM_VERS = 2.0
CREATION_DATE  = 
ORIGINATOR     = 

OBJECT_NAME    = SL-16 R/B
OBJECT_ID      = 1993-016B
CENTER_NAME    = EARTH
REF_FRAME      = TEME
TIME_SYSTEM    = UTC
MEAN_ELEMENT_THEORY = SGP/SGP4

EPOCH          = 2026-04-04T07:03:53.806464
MEAN_MOTION    = 14.15308631
ECCENTRICITY   = .00123883
INCLINATION    = 71.0073
RA_OF_ASC_NODE = 161.4078
ARG_OF_PERICENTER = 281.3715
MEAN_ANOMALY   = 78.6016

EPHEMERIS_TYPE = 0
CLASSIFICATION_TYPE = U
NORAD_CAT_ID   = 22566
ELEMENT_SET_NO = 999
REV_AT_EPOCH   = 70579
BSTAR          = .20447978E-3
MEAN_MOTION_DOT = .351E-5
MEAN_MOTION_DDOT = 0

